[
    {
        "Altitude(m)": 605470.7359480454,
        "Argument of Periapsis(deg)": 0.0,
        "Eccentricity": 0.0,
        "Inclination(deg)": 60.0,
        "Latitude(deg)": 27.988030650014892,
        "Longitude(deg)": -62.73707872558011,
        "Mean Anomaly(deg)": -212.7273,
        "RAAN(deg)": 235.0,
        "Satellite Name": "Test1 1043",
        "Satellite Number": 1043,
        "Semi-Major Axis(m)": 6980739.136638005,
        "Time(s)": 0
    },
    {
        "Altitude(m)": 605395.7745893716,
        "Argument of Periapsis(deg)": 0.00010418945913296404,
        "Eccentricity": 0.0,
        "Inclination(deg)": 60.0,
        "Latitude(deg)": 27.473721635845003,
        "Longitude(deg)": -62.38389094834386,
        "Mean Anomaly(deg)": -212.10719385453817,
        "RAAN(deg)": 234.99957995086027,
        "Satellite Name": "Test1 1043",
        "Satellite Number": 1043,
        "Semi-Major Axis(m)": 6980739.136638005,
        "Time(s)": 10
    },
    {
        "Altitude(m)": 605322.6159068478,
        "Argument of Periapsis(deg)": 0.0002083789182659281,
        "Eccentricity": 0.0,
        "Inclination(deg)": 60.0,
        "Latitude(deg)": 26.95826682981321,
        "Longitude(deg)": -62.03435135203936,
        "Mean Anomaly(deg)": -211.48708770907638,
        "RAAN(deg)": 234.99915990172047,
        "Satellite Name": "Test1 1043",
        "Satellite Number": 1043,
        "Semi-Major Axis(m)": 6980739.136638005,
        "Time(s)": 20
    },
    {
        "Altitude(m)": 605251.3155746633,
        "Argument of Periapsis(deg)": 0.00031256837739889213,
        "Eccentricity": 0.0,
        "Inclination(deg)": 60.0,
        "Latitude(deg)": 26.44170073419517,
        "Longitude(deg)": -61.688355287554074,
        "Mean Anomaly(deg)": -210.86698156361453,
        "RAAN(deg)": 234.9987398525808,
        "Satellite Name": "Test1 1043",
        "Satellite Number": 1043,
        "Semi-Major Axis(m)": 6980739.136638005,
        "Time(s)": 30
    },
    {
        "Altitude(m)": 605181.9285390687,
        "Argument of Periapsis(deg)": 0.0004167578365318562,
        "Eccentricity": 0.0,
        "Inclination(deg)": 60.0,
        "Latitude(deg)": 25.924056996979644,
        "Longitude(deg)": -61.34579983822876,
        "Mean Anomaly(deg)": -210.2468754181527,
        "RAAN(deg)": 234.99831980344103,
        "Satellite Name": "Test1 1043",
        "Satellite Number": 1043,
        "Semi-Major Axis(m)": 6980739.136638005,
        "Time(s)": 40
    },
    {
        "Altitude(m)": 605114.5089894211,
        "Argument of Periapsis(deg)": 0.0005209472956648203,
        "Eccentricity": 0.0,
        "Inclination(deg)": 60.0,
        "Latitude(deg)": 25.405368444421367,
        "Longitude(deg)": -61.006584763734004,
        "Mean Anomaly(deg)": -209.62676927269084,
        "RAAN(deg)": 234.99789975430124,
        "Satellite Name": "Test1 1043",
        "Satellite Number": 1043,
        "Semi-Major Axis(m)": 6980739.136638005,
        "Time(s)": 50
    },
    {
        "Altitude(m)": 605049.1103295616,
        "Argument of Periapsis(deg)": 0.0006251367547977843,
        "Eccentricity": 0.0,
        "Inclination(deg)": 60.0,
        "Latitude(deg)": 24.885667112478774,
        "Longitude(deg)": -60.6706119318744,
        "Mean Anomaly(deg)": -209.00666312722907,
        "RAAN(deg)": 234.9974797051615,
        "Satellite Name": "Test1 1043",
        "Satellite Number": 1043,
        "Semi-Major Axis(m)": 6980739.136638005,
        "Time(s)": 60
    },
    {
        "Altitude(m)": 604985.7851495467,
        "Argument of Periapsis(deg)": 0.0007293262139307483,
        "Eccentricity": 0.0,
        "Inclination(deg)": 60.0,
        "Latitude(deg)": 24.364984277174727,
        "Longitude(deg)": -60.337784751249636,
        "Mean Anomaly(deg)": -208.38655698176717,
        "RAAN(deg)": 234.99705965602183,
        "Satellite Name": "Test1 1043",
        "Satellite Number": 1043,
        "Semi-Major Axis(m)": 6980739.136638005,
        "Time(s)": 70
    },
    {
        "Altitude(m)": 604924.585197721,
        "Argument of Periapsis(deg)": 0.0008335156730637124,
        "Eccentricity": 0.0,
        "Inclination(deg)": 60.0,
        "Latitude(deg)": 23.84335048391666,
        "Longitude(deg)": -60.00800911769203,
        "Mean Anomaly(deg)": -207.76645083630538,
        "RAAN(deg)": 234.99663960688204,
        "Satellite Name": "Test1 1043",
        "Satellite Number": 1043,
        "Semi-Major Axis(m)": 6980739.136638005,
        "Time(s)": 80
    },
    {
        "Altitude(m)": 604865.561353163,
        "Argument of Periapsis(deg)": 0.0009377051321966765,
        "Eccentricity": 0.0,
        "Inclination(deg)": 60.0,
        "Latitude(deg)": 23.32079557581678,
        "Longitude(deg)": -59.68119284877838,
        "Mean Anomaly(deg)": -207.14634469084353,
        "RAAN(deg)": 234.99621955774228,
        "Satellite Name": "Test1 1043",
        "Satellite Number": 1043,
        "Semi-Major Axis(m)": 6980739.136638005,
        "Time(s)": 90
    },
    {
        "Altitude(m)": 604808.7635985399,
        "Argument of Periapsis(deg)": 0.0010418945913296407,
        "Eccentricity": 0.0,
        "Inclination(deg)": 60.0,
        "Latitude(deg)": 22.797348721046866,
        "Longitude(deg)": -59.357245119316,
        "Mean Anomaly(deg)": -206.5262385453817,
        "RAAN(deg)": 234.99579950860254,
        "Satellite Name": "Test1 1043",
        "Satellite Number": 1043,
        "Semi-Major Axis(m)": 6980739.136638005,
        "Time(s)": 100
    },
    {
        "Altitude(m)": 604754.2409933188,
        "Argument of Periapsis(deg)": 0.0011460840504626045,
        "Eccentricity": 0.0,
        "Inclination(deg)": 60.0,
        "Latitude(deg)": 22.27303843926313,
        "Longitude(deg)": -59.0360774107029,
        "Mean Anomaly(deg)": -205.90613239991987,
        "RAAN(deg)": 234.9953794594628,
        "Satellite Name": "Test1 1043",
        "Satellite Number": 1043,
        "Semi-Major Axis(m)": 6980739.136638005,
        "Time(s)": 110
    },
    {
        "Altitude(m)": 604702.0416474374,
        "Argument of Periapsis(deg)": 0.0012502735095955685,
        "Eccentricity": 0.0,
        "Inclination(deg)": 60.0,
        "Latitude(deg)": 21.747892627138274,
        "Longitude(deg)": -58.717602948432344,
        "Mean Anomaly(deg)": -205.28602625445802,
        "RAAN(deg)": 234.99495941032308,
        "Satellite Name": "Test1 1043",
        "Satellite Number": 1043,
        "Semi-Major Axis(m)": 6980739.136638005,
        "Time(s)": 120
    },
    {
        "Altitude(m)": 604652.2126953787,
        "Argument of Periapsis(deg)": 0.0013544629687285324,
        "Eccentricity": 0.0,
        "Inclination(deg)": 60.0,
        "Latitude(deg)": 21.22193858303371,
        "Longitude(deg)": -58.40173614062722,
        "Mean Anomaly(deg)": -204.66592010899623,
        "RAAN(deg)": 234.9945393611833,
        "Satellite Name": "Test1 1043",
        "Satellite Number": 1043,
        "Semi-Major Axis(m)": 6980739.136638005,
        "Time(s)": 130
    },
    {
        "Altitude(m)": 604604.8002706888,
        "Argument of Periapsis(deg)": 0.0014586524278614966,
        "Eccentricity": 0.0,
        "Inclination(deg)": 60.0,
        "Latitude(deg)": 20.695203030844088,
        "Longitude(deg)": -58.08839353048228,
        "Mean Anomaly(deg)": -204.04581396353439,
        "RAAN(deg)": 234.99411931204358,
        "Satellite Name": "Test1 1043",
        "Satellite Number": 1043,
        "Semi-Major Axis(m)": 6980739.136638005,
        "Time(s)": 140
    },
    {
        "Altitude(m)": 604559.8494809602,
        "Argument of Periapsis(deg)": 0.0015628418869944607,
        "Eccentricity": 0.0,
        "Inclination(deg)": 60.0,
        "Latitude(deg)": 20.1677121430493,
        "Longitude(deg)": -57.777493236872075,
        "Mean Anomaly(deg)": -203.42570781807254,
        "RAAN(deg)": 234.99369926290385,
        "Satellite Name": "Test1 1043",
        "Satellite Number": 1043,
        "Semi-Major Axis(m)": 6980739.136638005,
        "Time(s)": 150
    },
    {
        "Altitude(m)": 604517.4043832868,
        "Argument of Periapsis(deg)": 0.0016670313461274247,
        "Eccentricity": 0.0,
        "Inclination(deg)": 60.0,
        "Latitude(deg)": 19.639491563003855,
        "Longitude(deg)": -57.46895439599366,
        "Mean Anomaly(deg)": -202.80560167261072,
        "RAAN(deg)": 234.9932792137641,
        "Satellite Name": "Test1 1043",
        "Satellite Number": 1043,
        "Semi-Major Axis(m)": 6980739.136638005,
        "Time(s)": 160
    },
    {
        "Altitude(m)": 604477.5079601916,
        "Argument of Periapsis(deg)": 0.0017712208052603888,
        "Eccentricity": 0.0,
        "Inclination(deg)": 60.0,
        "Latitude(deg)": 19.110566426493765,
        "Longitude(deg)": -57.162698116910796,
        "Mean Anomaly(deg)": -202.18549552714893,
        "RAAN(deg)": 234.99285916462435,
        "Satellite Name": "Test1 1043",
        "Satellite Number": 1043,
        "Semi-Major Axis(m)": 6980739.136638005,
        "Time(s)": 170
    },
    {
        "Altitude(m)": 604440.2020960558,
        "Argument of Periapsis(deg)": 0.001875410264393353,
        "Eccentricity": 0.0,
        "Inclination(deg)": 60.0,
        "Latitude(deg)": 18.5809613825924,
        "Longitude(deg)": -56.85864692524557,
        "Mean Anomaly(deg)": -201.56538938168705,
        "RAAN(deg)": 234.99243911548461,
        "Satellite Name": "Test1 1043",
        "Satellite Number": 1043,
        "Semi-Major Axis(m)": 6980739.136638005,
        "Time(s)": 180
    },
    {
        "Altitude(m)": 604405.5275540611,
        "Argument of Periapsis(deg)": 0.0019795997235263173,
        "Eccentricity": 0.0,
        "Inclination(deg)": 60.0,
        "Latitude(deg)": 18.05070061384455,
        "Longitude(deg)": -56.556724207876876,
        "Mean Anomaly(deg)": -200.94528323622527,
        "RAAN(deg)": 234.99201906634488,
        "Satellite Name": "Test1 1043",
        "Satellite Number": 1043,
        "Semi-Major Axis(m)": 6980739.136638005,
        "Time(s)": 190
    }
]